STARLINK-4278           
1 53182U 22083BC  26068.45524651  .00000394  00000+0  42862-4 0  9999
2 53182  53.2175 140.1660 0001493  93.1625 266.9538 15.08842599201660
STARLINK-5895           
1 55964U 23037BC  26068.93316413  .00010921  00000+0  72850-3 0  9993
2 55964  69.9972 260.0280 0004986 264.4993  95.5602 15.07243555164606
